[
    {"IdRecord":1,"NameRus":"Абакан","NameEn":"Abakan","RusIcao":"УНАА","EnIcao":"UNAA","Frequency":108.025,"RSDS":22056,"Latitude":53.7494469,"Longitude":91.38917},
    {"IdRecord":2,"NameRus":"Анадырь","NameEn":"Anadyr","RusIcao":"УХМА","EnIcao":"UHMA","Frequency":114.35,"RSDS":22309,"Latitude":64.72083,"Longitude":177.739166},
    {"IdRecord":3,"NameRus":"Анапа","NameEn":"Anapa","RusIcao":"УРКА","EnIcao":"URKA","Frequency":108.45,"RSDS":22073,"Latitude":45.0019455,"Longitude":37.339447},
    {"IdRecord":4,"NameRus":"Апатиты(Хибины)","NameEn":"Apatity(Khibiny)","RusIcao":"УЛMK","EnIcao":"ULMK","Frequency":112.35,"RSDS":22229,"Latitude":67.46834,"Longitude":33.57111},
    {"IdRecord":5,"NameRus":"Архангельск","NameEn":"Arkhangelsk","RusIcao":"УЛАА","EnIcao":"ULAA","Frequency":114.35,"RSDS":22309,"Latitude":64.60889,"Longitude":40.7},
    {"IdRecord":6,"NameRus":"Астрахань","NameEn":"Astrakhan","RusIcao":"УРВА","EnIcao":"URWA","Frequency":108.65,"RSDS":22081,"Latitude":46.2869453,"Longitude":48.0027771},
    {"IdRecord":7,"NameRus":"Барнаул","NameEn":"Barnaul","RusIcao":"УНББ","EnIcao":"UNBB","Frequency":112.35,"RSDS":22229,"Latitude":53.3608322,"Longitude":83.54584},
    {"IdRecord":8,"NameRus":"Бегишево","NameEn":"Begishevo","RusIcao":"УВКЕ","EnIcao":"UWKE","Frequency":113.15,"RSDS":22261,"Latitude":55.5658379,"Longitude":52.08972},
    {"IdRecord":9,"NameRus":"Белгород","NameEn":"Belgorod","RusIcao":"УУОБ","EnIcao":"UUOB","Frequency":114.45,"RSDS":22313,"Latitude":50.64528,"Longitude":36.5905571},
    {"IdRecord":10,"NameRus":"Благовещенск","NameEn":"Blagoveshchensk","RusIcao":"УХББ","EnIcao":"UHBB","Frequency":112.35,"RSDS":22229,"Latitude":50.42389,"Longitude":127.407227},
    {"IdRecord":11,"NameRus":"Бованенково","NameEn":"Bovanenkovo","RusIcao":"УСДБ","EnIcao":"USDB","Frequency":114.35,"RSDS":22309,"Latitude":70.3175,"Longitude":68.34556},
    {"IdRecord":12,"NameRus":"Братск","NameEn":"Bratsk","RusIcao":"УИББ","EnIcao":"UIBB","Frequency":113.35,"RSDS":22269,"Latitude":56.3652763,"Longitude":101.701942},
    {"IdRecord":13,"NameRus":"Владивосток","NameEn":"Vladivostok","RusIcao":"УХВВ","EnIcao":"UHWW","Frequency":108.15,"RSDS":22061,"Latitude":43.40639,"Longitude":132.161667},
    {"IdRecord":14,"NameRus":"Владикавказ","NameEn":"Vladikavkaz","RusIcao":"УРМО","EnIcao":"URMO","Frequency":108.5,"RSDS":22075,"Latitude":43.20139,"Longitude":44.6055565},
    {"IdRecord":15,"NameRus":"Волгоград","NameEn":"Volgograd","RusIcao":"УРВВ","EnIcao":"URWW","Frequency":109.05,"RSDS":22097,"Latitude":48.7794456,"Longitude":44.3430557},
    {"IdRecord":16,"NameRus":"Вологда","NameEn":"Vologda","RusIcao":"УЛВВ","EnIcao":"ULWW","Frequency":113.35,"RSDS":22269,"Latitude":59.2883339,"Longitude":39.94889},
    {"IdRecord":17,"NameRus":"Воркута","NameEn":"Vorkuta","RusIcao":"УУЫВ","EnIcao":"UUYW","Frequency":115,"RSDS":22335,"Latitude":67.49028,"Longitude":64.00445},
    {"IdRecord":18,"NameRus":"Воронеж","NameEn":"Voronezh","RusIcao":"УУОО","EnIcao":"UUOO","Frequency":116.8,"RSDS":22407,"Latitude":51.82,"Longitude":39.2236137},
    {"IdRecord":19,"NameRus":"Геленджик","NameEn":"Gelendzhik","RusIcao":"УРКГ","EnIcao":"URKG","Frequency":108.2,"RSDS":22063,"Latitude":44.5794449,"Longitude":38.0155563},
    {"IdRecord":20,"NameRus":"Горно-Алтайск","NameEn":"Gorno-Altaysk","RusIcao":"УНБГ","EnIcao":"UNBG","Frequency":116.35,"RSDS":22389,"Latitude":51.9622231,"Longitude":85.867775},
    {"IdRecord":21,"NameRus":"Грозный","NameEn":"Grozny","RusIcao":"УРМГ","EnIcao":"URMG","Frequency":108.15,"RSDS":22061,"Latitude":43.38639,"Longitude":45.70361},{"IdRecord":22,"NameRus":"Екатеринбург","NameEn":"Yekaterinburg","RusIcao":"УССС","EnIcao":"USSS","Frequency":114.2,"RSDS":22303,"Latitude":56.74972,"Longitude":60.8025},{"IdRecord":23,"NameRus":"Игарка","NameEn":"Igarka","RusIcao":"УОИИ","EnIcao":"UOII","Frequency":111.3,"RSDS":22187,"Latitude":67.44222,"Longitude":86.60389},{"IdRecord":24,"NameRus":"Иркутск","NameEn":"Irkutsk","RusIcao":"УИИИ","EnIcao":"UIII","Frequency":114.35,"RSDS":22309,"Latitude":52.2619438,"Longitude":104.40889},{"IdRecord":25,"NameRus":"Йошкар-Ола","NameEn":"Yoshkar-Ola","RusIcao":"УВКЖ","EnIcao":"UWKJ","Frequency":116,"RSDS":22375,"Latitude":56.7,"Longitude":47.9066658},{"IdRecord":26,"NameRus":"Итуруп","NameEn":"Iturup","RusIcao":"УХСИ","EnIcao":"UHSI","Frequency":114.1,"RSDS":22299,"Latitude":45.26,"Longitude":147.954163},{"IdRecord":27,"NameRus":"Казань","NameEn":"Kazan","RusIcao":"УВКД","EnIcao":"UWKD","Frequency":116.35,"RSDS":22389,"Latitude":55.58806,"Longitude":49.2997246},{"IdRecord":28,"NameRus":"Кемерово","NameEn":"Kemerovo","RusIcao":"УНЕЕ","EnIcao":"UNEE","Frequency":113.35,"RSDS":22269,"Latitude":55.2808342,"Longitude":86.11667},{"IdRecord":29,"NameRus":"Кепервеем","NameEn":"Keperveem","RusIcao":"УХМК","EnIcao":"UHMK","Frequency":114.35,"RSDS":22309,"Latitude":67.84639,"Longitude":166.109161},{"IdRecord":30,"NameRus":"Киренск","NameEn":"Kirensk","RusIcao":"УИКК","EnIcao":"UIKK","Frequency":114.4,"RSDS":22311,"Latitude":57.77,"Longitude":108.053337},{"IdRecord":31,"NameRus":"Комсомольск-на-Амуре(Дземги)","NameEn":"Komsomolsk-na-Amure(Dzemgi)","RusIcao":"УХКК","EnIcao":"UHKK","Frequency":116.3,"RSDS":22387,"Latitude":50.4044456,"Longitude":136.928619},{"IdRecord":32,"NameRus":"Котлас","NameEn":"Kotlas","RusIcao":"УЛКК","EnIcao":"ULKK","Frequency":111.5,"RSDS":22195,"Latitude":61.23778,"Longitude":46.7022247},{"IdRecord":33,"NameRus":"Краснодар","NameEn":"Krasnodar","RusIcao":"УРКК","EnIcao":"URKK","Frequency":113.35,"RSDS":22269,"Latitude":45.0347252,"Longitude":39.1394424},{"IdRecord":34,"NameRus":"Красноярск(Емельяново)","NameEn":"Krasnoyarsk(Yemelyanovo)","RusIcao":"УНКЛ","EnIcao":"UNKL","Frequency":114.375,"RSDS":22310,"Latitude":56.17389,"Longitude":92.51361},{"IdRecord":35,"NameRus":"Курган","NameEn":"Kurgan","RusIcao":"УСУУ","EnIcao":"USUU","Frequency":114.65,"RSDS":22321,"Latitude":55.46361,"Longitude":65.41333},{"IdRecord":36,"NameRus":"Кызыл","NameEn":"Kyzyl","RusIcao":"УНКЫ","EnIcao":"UNKY","Frequency":114.35,"RSDS":22309,"Latitude":51.6688881,"Longitude":94.40278},{"IdRecord":37,"NameRus":"Ленск","NameEn":"Lensk","RusIcao":"УЕРЛ","EnIcao":"UERL","Frequency":114.35,"RSDS":22309,"Latitude":60.7225037,"Longitude":114.831665},{"IdRecord":38,"NameRus":"Лешуконское","NameEn":"Leshukonskoye","RusIcao":"УЛАЛ","EnIcao":"ULAL","Frequency":112,"RSDS":22215,"Latitude":64.8936157,"Longitude":45.7391663},{"IdRecord":39,"NameRus":"Магадан","NameEn":"Magadan","RusIcao":"УХММ","EnIcao":"UHMM","Frequency":114.35,"RSDS":22309,"Latitude":59.91389,"Longitude":150.7286},{"IdRecord":40,"NameRus":"Магнигорск","NameEn":"Magnitogorsk","RusIcao":"УСЦМ","EnIcao":"USCM","Frequency":115.4,"RSDS":22351,"Latitude":53.403614,"Longitude":58.7630577},{"IdRecord":41,"NameRus":"Махачкала","NameEn":"Makhachkala","RusIcao":"УРМЛ","EnIcao":"URML","Frequency":113.85,"RSDS":22289,"Latitude":42.8191681,"Longitude":47.6569481},{"IdRecord":42,"NameRus":"Минеральные Воды","NameEn":"Mineralnyye Vody","RusIcao":"УРММ","EnIcao":"URMM","Frequency":114.35,"RSDS":22309,"Latitude":44.2147255,"Longitude":43.0905571},{"IdRecord":43,"NameRus":"Мирный","NameEn":"Mirny","RusIcao":"УЕРР","EnIcao":"UERR","Frequency":113.35,"RSDS":22269,"Latitude":62.5311127,"Longitude":114.021393},{"IdRecord":44,"NameRus":"Москва (Внуково)","NameEn":"Moscow (Vnukovo)","RusIcao":"УУВВ","EnIcao":"UUWW","Frequency":108.5,"RSDS":22075,"Latitude":55.5897255,"Longitude":37.2741661},{"IdRecord":45,"NameRus":"Москва (Домодедово)","NameEn":"Moscow (Domodedovo)","RusIcao":"УУДД","EnIcao":"UUDD","Frequency":114.425,"RSDS":22312,"Latitude":55.41389,"Longitude":37.90028},{"IdRecord":46,"NameRus":"Москва (Шереметьево)","NameEn":"Moscow (Sheremetyevo)","RusIcao":"УУЕЕ","EnIcao":"UUEE","Frequency":112.55,"RSDS":22237,"Latitude":55.9755554,"Longitude":37.4133339},{"IdRecord":47,"NameRus":"Мурманск","NameEn":"Murmansk","RusIcao":"УЛMM","EnIcao":"ULMM","Frequency":113.35,"RSDS":22269,"Latitude":68.78028,"Longitude":32.7480545},{"IdRecord":48,"NameRus":"Надым","NameEn":"Nadym","RusIcao":"УСММ","EnIcao":"USMM","Frequency":114.35,"RSDS":22309,"Latitude":65.47945,"Longitude":72.69278},{"IdRecord":49,"NameRus":"Нальчик","NameEn":"Nalchik","RusIcao":"УРМН","EnIcao":"URMN","Frequency":113.65,"RSDS":22281,"Latitude":43.515,"Longitude":43.6383362},{"IdRecord":50,"NameRus":"Нарьян-Мар","NameEn":"Naryan-Mar","RusIcao":"УЛAM","EnIcao":"ULAM","Frequency":111,"RSDS":22175,"Latitude":67.6366653,"Longitude":53.1244469},{"IdRecord":51,"NameRus":"Нерюнгри","NameEn":"Neryungri","RusIcao":"УЕЛЛ","EnIcao":"UELL","Frequency":110.9,"RSDS":22171,"Latitude":56.9050026,"Longitude":124.901665},{"IdRecord":52,"NameRus":"Нижневартовск","NameEn":"Nizhnevartovsk","RusIcao":"УСНН","EnIcao":"USNN","Frequency":113.5,"RSDS":22275,"Latitude":60.9458351,"Longitude":76.47139},{"IdRecord":53,"NameRus":"Нижний Новгород","NameEn":"Nizhny Novgorod","RusIcao":"УВГГ","EnIcao":"UWGG","Frequency":111.15,"RSDS":22181,"Latitude":56.22222,"Longitude":43.7911148},{"IdRecord":54,"NameRus":"Новокузнецк","NameEn":"Novokuznetsk","RusIcao":"УНВВ","EnIcao":"UNWW","Frequency":114.85,"RSDS":22329,"Latitude":53.81389,"Longitude":86.88306},{"IdRecord":55,"NameRus":"Новосибирск","NameEn":"Novosibirsk","RusIcao":"УННТ","EnIcao":"UNNT","Frequency":114.35,"RSDS":22309,"Latitude":55.0169449,"Longitude":82.65139},{"IdRecord":56,"NameRus":"Новый Уренгой","NameEn":"Novy Urengoy","RusIcao":"УСМУ","EnIcao":"USMU","Frequency":114.7,"RSDS":22323,"Latitude":66.0636139,"Longitude":76.56528},{"IdRecord":57,"NameRus":"Ноглики","NameEn":"Nogliki","RusIcao":"УХСН","EnIcao":"UHSN","Frequency":114.35,"RSDS":22309,"Latitude":51.7891655,"Longitude":143.141953},{"IdRecord":58,"NameRus":"Норильск","NameEn":"Norilsk","RusIcao":"УООО","EnIcao":"UOOO","Frequency":108.25,"RSDS":22065,"Latitude":69.32472,"Longitude":87.34278},{"IdRecord":59,"NameRus":"Ноябрьск","NameEn":"Noyabrsk","RusIcao":"УСРО","EnIcao":"USRO","Frequency":113.35,"RSDS":22269,"Latitude":63.1808357,"Longitude":75.273056},{"IdRecord":60,"NameRus":"Омск","NameEn":"Omsk","RusIcao":"УНОО","EnIcao":"UNOO","Frequency":111.75,"RSDS":22205,"Latitude":54.965,"Longitude":73.31084},{"IdRecord":61,"NameRus":"Оренбург","NameEn":"Orenburg","RusIcao":"УВОО","EnIcao":"UWOO","Frequency":115.7,"RSDS":22363,"Latitude":51.7958336,"Longitude":55.53528},{"IdRecord":62,"NameRus":"Орск","NameEn":"Orsk","RusIcao":"УВОР","EnIcao":"UWOR","Frequency":114.35,"RSDS":22309,"Latitude":51.07639,"Longitude":58.5936127},{"IdRecord":63,"NameRus":"Певек","NameEn":"Pevek","RusIcao":"УХМП","EnIcao":"UHMP","Frequency":112.5,"RSDS":22235,"Latitude":69.78834,"Longitude":170.602509},{"IdRecord":64,"NameRus":"Пенза","NameEn":"Penza","RusIcao":"УВПП","EnIcao":"UWPP","Frequency":115.35,"RSDS":22349,"Latitude":53.1183319,"Longitude":45.01917},{"IdRecord":65,"NameRus":"Пермь","NameEn":"Perm","RusIcao":"УСПП","EnIcao":"USPP","Frequency":114.35,"RSDS":22309,"Latitude":57.9205551,"Longitude":56.02111},{"IdRecord":66,"NameRus":"Петрозаводск","NameEn":"Petrozavodsk","RusIcao":"УЛПБ","EnIcao":"ULPB","Frequency":115.25,"RSDS":22345,"Latitude":61.8858337,"Longitude":34.16111},{"IdRecord":67,"NameRus":"Петропавловск-Камчатский","NameEn":"Petropavlovsk-Kamchatsky","RusIcao":"УХПП","EnIcao":"UHPP","Frequency":113.35,"RSDS":22269,"Latitude":53.16528,"Longitude":158.447784},{"IdRecord":68,"NameRus":"Подкаменная Тунгуска","NameEn":"Podkamennaya Tunguska","RusIcao":"УНИП","EnIcao":"UNIP","Frequency":108.025,"RSDS":22056,"Latitude":61.5919456,"Longitude":89.99306},{"IdRecord":69,"NameRus":"Полярный","NameEn":"Poliarny","RusIcao":"УЕРП","EnIcao":"UERP","Frequency":116.5,"RSDS":22395,"Latitude":66.4,"Longitude":112.037781},{"IdRecord":70,"NameRus":"Псков","NameEn":"Pskov","RusIcao":"УЛОО","EnIcao":"ULOO","Frequency":113.35,"RSDS":22269,"Latitude":57.7972221,"Longitude":28.3925},{"IdRecord":71,"NameRus":"Ростов-на-Дону(Платов)","NameEn":"Rostov-na-Donu(Platov)","RusIcao":"УРРП","EnIcao":"URRP","Frequency":108.85,"RSDS":22089,"Latitude":47.4950027,"Longitude":39.9411125},{"IdRecord":72,"NameRus":"Сабетта","NameEn":"Sabetta","RusIcao":"УСДА","EnIcao":"USDA","Frequency":115.8,"RSDS":22367,"Latitude":71.21889,"Longitude":72.047226},{"IdRecord":73,"NameRus":"Салехард","NameEn":"Salekhard","RusIcao":"УСДД","EnIcao":"USDD","Frequency":114.5,"RSDS":22315,"Latitude":66.5908356,"Longitude":66.585556},{"IdRecord":74,"NameRus":"Самара(Курумоч)","NameEn":"Samara(Kurumoch)","RusIcao":"УВВВ","EnIcao":"UWWW","Frequency":114.35,"RSDS":22309,"Latitude":53.50778,"Longitude":50.18667},{"IdRecord":75,"NameRus":"Санкт-Петербург(Пулково)","NameEn":"Sankt-Peterburg(Pulkovo)","RusIcao":"УЛЛИ","EnIcao":"ULLI","Frequency":114.35,"RSDS":22309,"Latitude":59.8033333,"Longitude":30.2975025},{"IdRecord":76,"NameRus":"Саратов","NameEn":"Saratov","RusIcao":"УВСС","EnIcao":"UWSS","Frequency":112.4,"RSDS":22231,"Latitude":51.63389,"Longitude":46.0361137},{"IdRecord":77,"NameRus":"Северо-Енисейск","NameEn":"Severo-Yeniseysk","RusIcao":"УНИС","EnIcao":"UNIS","Frequency":113.8,"RSDS":22287,"Latitude":60.37278,"Longitude":93.01611},{"IdRecord":78,"NameRus":"Слепцовкая(Магас)","NameEn":"Sleptsovskaya(Magas)","RusIcao":"УРМС","EnIcao":"URMS","Frequency":114.65,"RSDS":22321,"Latitude":43.3183365,"Longitude":45.015},{"IdRecord":79,"NameRus":"Симферополь","NameEn":"Simferopol","RusIcao":"УРФФ","EnIcao":"URFF","Frequency":108.5,"RSDS":22075,"Latitude":45.0525,"Longitude":33.9708366},{"IdRecord":80,"NameRus":"Сочи","NameEn":"Sochi","RusIcao":"УРСС","EnIcao":"URSS","Frequency":116.45,"RSDS":22393,"Latitude":43.45,"Longitude":39.9480553},{"IdRecord":81,"NameRus":"Ставрополь","NameEn":"Stavropol","RusIcao":"УРМТ","EnIcao":"URMT","Frequency":108.4,"RSDS":22071,"Latitude":45.11,"Longitude":42.1083336},{"IdRecord":82,"NameRus":"Стрежевой","NameEn":"Strezhevoy","RusIcao":"УНСС","EnIcao":"UNSS","Frequency":114.5,"RSDS":22315,"Latitude":60.7519455,"Longitude":77.6300049},{"IdRecord":83,"NameRus":"Сургут","NameEn":"Surgut","RusIcao":"УСРР","EnIcao":"USRR","Frequency":114.35,"RSDS":22309,"Latitude":61.34028,"Longitude":73.41139},{"IdRecord":84,"NameRus":"Сыктывкар","NameEn":"Syktyvkar","RusIcao":"УУЫЫ","EnIcao":"UUYY","Frequency":117,"RSDS":22415,"Latitude":61.653614,"Longitude":50.8561134},{"IdRecord":85,"NameRus":"Тверь","NameEn":"Tver","RusIcao":"УУБН","EnIcao":"UUBN","Frequency":113,"RSDS":22255,"Latitude":56.8277779,"Longitude":35.8133354},{"IdRecord":86,"NameRus":"Тикси","NameEn":"Tiksi","RusIcao":"УЕСТ","EnIcao":"UEST","Frequency":116.6,"RSDS":22399,"Latitude":71.69806,"Longitude":128.888336},{"IdRecord":87,"NameRus":"Томск","NameEn":"Tomsk","RusIcao":"УНТТ","EnIcao":"UNTT","Frequency":115350,"RSDS":22349,"Latitude":56.38139,"Longitude":85.21306},{"IdRecord":88,"NameRus":"Туруханск","NameEn":"Turukhansk","RusIcao":"УОТТ","EnIcao":"UOTT","Frequency":116.2,"RSDS":22383,"Latitude":65.80195,"Longitude":87.93},{"IdRecord":89,"NameRus":"Тура","NameEn":"Tura","RusIcao":"УНИТ","EnIcao":"UNIT","Frequency":112,"RSDS":22215,"Latitude":64.34,"Longitude":100.430557},{"IdRecord":90,"NameRus":"Тюмень","NameEn":"Tyumen","RusIcao":"УСТР","EnIcao":"USTR","Frequency":114.35,"RSDS":22309,"Latitude":57.1819458,"Longitude":65.3475},{"IdRecord":91,"NameRus":"Улан-Удэ","NameEn":"Ulan-Ude","RusIcao":"УИУУ","EnIcao":"UIUU","Frequency":114.45,"RSDS":22313,"Latitude":51.8050041,"Longitude":107.446671},{"IdRecord":92,"NameRus":"Ульяновск(Баратаевка)","NameEn":"Ulyanovsk(Baratayevka)","RusIcao":"УВЛЛ","EnIcao":"UWLL","Frequency":115.5,"RSDS":22355,"Latitude":54.2722244,"Longitude":48.23945},{"IdRecord":93,"NameRus":"Усинск","NameEn":"Usinsk","RusIcao":"УУЫС","EnIcao":"UUYS","Frequency":113,"RSDS":22255,"Latitude":66.00278,"Longitude":57.3758354},{"IdRecord":94,"NameRus":"Усть-Кут","NameEn":"Ust-Kut","RusIcao":"УИТТ","EnIcao":"UITT","Frequency":113.95,"RSDS":22293,"Latitude":56.8566666,"Longitude":105.741943},{"IdRecord":95,"NameRus":"Ухта","NameEn":"Ukhta","RusIcao":"УУЫХ","EnIcao":"UUYH","Frequency":114.75,"RSDS":22325,"Latitude":63.5633354,"Longitude":53.79889},{"IdRecord":96,"NameRus":"Уфа","NameEn":"Ufa","RusIcao":"УВУУ","EnIcao":"UWUU","Frequency":113.35,"RSDS":22269,"Latitude":54.5577774,"Longitude":55.8611145},{"IdRecord":97,"NameRus":"Хабаровск","NameEn":"Khabarovsk","RusIcao":"УХХХ","EnIcao":"UHHH","Frequency":114.35,"RSDS":22309,"Latitude":48.51889,"Longitude":135.183884},{"IdRecord":98,"NameRus":"Ханты-Мансийск","NameEn":"Khanty-Mansiysk","RusIcao":"УСХХ","EnIcao":"USHH","Frequency":116.5,"RSDS":22395,"Latitude":61.03361,"Longitude":69.12889},{"IdRecord":99,"NameRus":"Хатанга","NameEn":"Khatanga","RusIcao":"УОХХ","EnIcao":"UOHH","Frequency":115.35,"RSDS":22349,"Latitude":71.97667,"Longitude":102.492226},{"IdRecord":100,"NameRus":"Челябинск","NameEn":"Chelyabinsk","RusIcao":"УСЦЦ","EnIcao":"USCC","Frequency":113.45,"RSDS":22273,"Latitude":53.3022232,"Longitude":61.5033379},{"IdRecord":101,"NameRus":"Чита","NameEn":"Chita","RusIcao":"УИАА","EnIcao":"UIAA","Frequency":114350,"RSDS":22309,"Latitude":52.0244446,"Longitude":113.304443},{"IdRecord":102,"NameRus":"Элиста","NameEn":"Elista","RusIcao":"УРВИ","EnIcao":"URWI","Frequency":109.85,"RSDS":22129,"Latitude":46.3719444,"Longitude":44.32945},{"IdRecord":103,"NameRus":"Южно-Курильск","NameEn":"Yuzhno-Kurilsk","RusIcao":"УХСМ","EnIcao":"UHSM","Frequency":114.35,"RSDS":22309,"Latitude":43.959446,"Longitude":145.6814},{"IdRecord":104,"NameRus":"Южно-Сахалинск","NameEn":"Yuzhno-Sakhalinsk","RusIcao":"УХСС","EnIcao":"UHSS","Frequency":113.35,"RSDS":22269,"Latitude":46.88778,"Longitude":142.714172},{"IdRecord":105,"NameRus":"Якутск","NameEn":"Yakutsk","RusIcao":"УЕЕЕ","EnIcao":"UEEE","Frequency":114.35,"RSDS":22309,"Latitude":62.08778,"Longitude":129.750549},{"IdRecord":106,"NameRus":"Ярославль","NameEn":"Yaroslavl","RusIcao":"УУДЛ","EnIcao":"UUDL","Frequency":108.1,"RSDS":22059,"Latitude":57.56278,"Longitude":40.1722221}]